LEMUR-2-ARIANNA         
1 62699U 25009CU  26164.82777161  .00008501  00000+0  64531-3 0  9991
2 62699  97.6903 246.2375 0003832 125.6739 234.4843 15.02441239 77054
LEMUR-2-ALISIA          
1 62706U 25009DB  26164.93949008  .00008016  00000+0  60427-3 0  9994
2 62706  97.6967 247.1313 0001585 189.9158 170.2036 15.02729483 99679
LEMUR-2-ROUNDTRIPPER    
1 62711U 25009DG  26164.96632621  .00009711  00000+0  71142-3 0  9992
2 62711  97.7260 247.6496 0004987 140.6315 219.5274 15.03744556 77145
LEMUR-2-MYNAMEISJEFF    
1 62712U 25009DH  26164.76512594  .00008973  00000+0  65781-3 0  9998
2 62712  97.7307 247.8278 0003187 163.7038 196.4291 15.03750410 77112
LEMUR-2-LEIA-PHILIP     
1 63246U 25052AN  26164.92879365  .00001548  00000+0  13843-3 0  9992
2 63246  97.6847  56.9346 0002237 220.7359 139.3696 14.97313146 68188
LEMUR-2-LIA-MARTIN      
1 63248U 25052AQ  26164.93488756  .00004500  00000+0  38809-3 0  9995
2 63248  97.6915  57.4111 0002701 160.3500 199.7826 14.97784098 68199
LEMUR-2-DELOITTE-1      
1 63259U 25052BB  26164.97765527  .00004510  00000+0  39102-3 0  9993
2 63259  97.6925  57.7817 0003161 103.8454 256.3120 14.97580440 68214
LEMUR-2-EMERSONROSE     
1 63261U 25052BD  26164.95598825  .00003898  00000+0  32598-3 0  9999
2 63261  97.6899  58.3135 0001919  66.3367 293.8057 14.99060410 68253
LEMUR-2-MARACHE-FRAN    
1 63262U 25052BE  26164.66668984  .00006003  00000+0  48631-3 0  9998
2 63262  97.6957  58.3364 0005732  35.2781 324.8821 15.00069886 68236
LEMUR-2-THEFALCONER     
1 63264U 25052BG  26164.93675440  .00003269  00000+0  28630-3 0  9993
2 63264  97.6882  57.3659 0003078  43.2593 316.8871 14.97372861 68200
LEMUR-2-UNTITLED-SC     
1 63351U 25061A   26164.91516229  .00004030  00000+0  22841-3 0  9992
2 63351  97.5629 140.3006 0016904 277.2467  82.6842 15.13454489 67093
LEMUR-2-ESPERANZA       
1 63352U 25061B   26164.89250083  .00004387  00000+0  24771-3 0  9992
2 63352  97.5636 140.3709 0016565 276.5984  83.3362 15.13546416 67098
LEMUR-2-KREMPEL-BRO2    
1 63353U 25061C   26164.92042434  .00004167  00000+0  23254-3 0  9997
2 63353  97.5684 140.9278 0017400 268.1361  91.7877 15.13984483 67111
LEMUR-2-THERMORAPTOR    
1 63354U 25061D   26164.90266270  .00004287  00000+0  23863-3 0  9991
2 63354  97.5688 140.9852 0017150 267.0478  92.8791 15.14062278 67110
LEMUR-2-NEUROSPICY      
1 63355U 25061E   26164.87458841  .00004903  00000+0  27172-3 0  9997
2 63355  97.5616 140.5860 0015020 271.0399  88.9112 15.14177631 67111
LEMUR-2-TILLINFINITY    
1 63356U 25061F   26164.91112772  .00004049  00000+0  22129-3 0  9991
2 63356  97.5598 140.9106 0016227 257.7055 102.2360 15.14763081 67146
LEMUR-2-KREMPEL-BRO1    
1 63357U 25061G   26164.88418022  .00004830  00000+0  26461-3 0  9996
2 63357  97.5602 140.8007 0016944 259.2251 100.7073 15.14568408 67132
LEMUR-2-LANGER2SPACE    
1 63358U 25061H   26164.91002414  .00004045  00000+0  22427-3 0  9991
2 63358  97.5604 140.6417 0014842 269.1377  90.8154 15.14265638 67129
LEMUR-2-BALTO           
1 63395U 25052BH  26164.65133582  .00006235  00000+0  50508-3 0  9998
2 63395  97.6897  58.3019 0006883  67.0578 293.1371 15.00051082 68235
LEMUR-2-KRISH           
1 64561U 25135AK  26164.59670875  .00005787  00000+0  51863-3 0  9996
2 64561  97.7738 279.4976 0001655 104.3226 255.8179 14.96175199 53382
LEMUR-2-HUBBLE-4        
1 64565U 25135AP  26164.78577992  .00001557  00000+0  15451-3 0  9991
2 64565  97.7696 278.7332 0001151 330.6333  29.4822 14.93188323 53369
LEMUR-2-SEJONG-2        
1 64586U 25135BL  26164.89528620  .00004042  00000+0  35923-3 0  9998
2 64586  97.7689 279.9389 0004120 354.1338   5.9834 14.96675735 53457
LEMUR-2-HUBBLE-5        
1 64840U 25135BT  26164.94289597  .00001684  00000+0  16276-3 0  9993
2 64840  97.7715 279.5169 0005341   5.7642 354.3639 14.94128250 53429
LEMUR-2-KARENDARRELL    
1 64841U 25135BU  26164.84966875  .00008344  00000+0  67366-3 0  9990
2 64841  97.7676 281.0632 0009446 215.0611 144.9992 15.00067927 53517
LEMUR-2-LUCILLE-ROSE    
1 65403U 25135BV  26164.89019160  .00007354  00000+0  59346-3 0  9995
2 65403  97.7771 281.1193 0010906 295.7572  64.2526 15.00118871 48140
LEMUR-2-AFFIE-WAUWIE    
1 66295U 25248C   26164.19609107  .00014630  00000+0  55126-3 0  9996
2 66295  45.3883 136.6090 0007861  56.5592 303.6048 15.27025697 33981
LEMUR-2-DEANANDMAEVE    
1 66678U 25276N   26164.16650979  .00006739  00000+0  31872-3 0  9995
2 66678  97.4219 237.7086 0006107  28.0215 332.1348 15.19685632 29801
LEMUR-2-STAS-GORBUK     
1 66686U 25276W   26164.77283031  .00005865  00000+0  28057-3 0  9992
2 66686  97.4254 238.3600 0005445  26.8469 333.3046 15.19347752 29894
LEMUR-2-TEODOR          
1 66768U 25276DG  26164.82614043  .00006397  00000+0  29138-3 0  9992
2 66768  97.4158 238.6447 0002067 119.1680 240.9763 15.21016754 29930
