OBJECT_NAME,OBJECT_ID,EPOCH,MEAN_MOTION,ECCENTRICITY,INCLINATION,RA_OF_ASC_NODE,ARG_OF_PERICENTER,MEAN_ANOMALY,EPHEMERIS_TYPE,CLASSIFICATION_TYPE,NORAD_CAT_ID,ELEMENT_SET_NO,REV_AT_EPOCH,BSTAR,MEAN_MOTION_DOT,MEAN_MOTION_DDOT
LEMUR-2-ARIANNA,2025-009CU,2026-06-13T19:51:59.467104,15.02441239,.00038323,97.6903,246.2375,125.6739,234.4843,0,U,62699,999,7705,.64530756E-3,.8501E-4,0
LEMUR-2-ALISIA,2025-009DB,2026-06-13T22:32:51.942912,15.02729483,.00015858,97.6967,247.1313,189.9158,170.2036,0,U,62706,999,9967,.60426584E-3,.8016E-4,0
LEMUR-2-ROUNDTRIPPER,2025-009DG,2026-06-13T23:11:30.584544,15.03744556,.00049871,97.7260,247.6496,140.6315,219.5274,0,U,62711,999,7714,.71142463E-3,.9711E-4,0
LEMUR-2-MYNAMEISJEFF,2025-009DH,2026-06-13T18:21:46.881216,15.03750410,.00031875,97.7307,247.8278,163.7038,196.4291,0,U,62712,999,7711,.65781107E-3,.8973E-4,0
LEMUR-2-LEIA-PHILIP,2025-052AN,2026-06-13T22:17:27.771360,14.97313146,.00022372,97.6847,56.9346,220.7359,139.3696,0,U,63246,999,6818,.1384321E-3,.1548E-4,0
LEMUR-2-LIA-MARTIN,2025-052AQ,2026-06-13T22:26:14.285184,14.97784098,.00027013,97.6915,57.4111,160.3500,199.7826,0,U,63248,999,6819,.38808787E-3,.45E-4,0
LEMUR-2-DELOITTE-1,2025-052BB,2026-06-13T23:27:49.415328,14.97580440,.00031618,97.6925,57.7817,103.8454,256.3120,0,U,63259,999,6821,.39102253E-3,.451E-4,0
LEMUR-2-EMERSONROSE,2025-052BD,2026-06-13T22:56:37.384800,14.99060410,.00019196,97.6899,58.3135,66.3367,293.8057,0,U,63261,999,6825,.32597841E-3,.3898E-4,0
LEMUR-2-MARACHE-FRAN,2025-052BE,2026-06-13T16:00:02.002176,15.00069886,.0005732,97.6957,58.3364,35.2781,324.8821,0,U,63262,999,6823,.48631E-3,.6003E-4,0
LEMUR-2-THEFALCONER,2025-052BG,2026-06-13T22:28:55.580160,14.97372861,.00030786,97.6882,57.3659,43.2593,316.8871,0,U,63264,999,6820,.28630085E-3,.3269E-4,0
LEMUR-2-UNTITLED-SC,2025-061A,2026-06-13T21:57:50.021856,15.13454489,.00169041,97.5629,140.3006,277.2467,82.6842,0,U,63351,999,6709,.22840715E-3,.403E-4,0
LEMUR-2-ESPERANZA,2025-061B,2026-06-13T21:25:12.071712,15.13546416,.00165656,97.5636,140.3709,276.5984,83.3362,0,U,63352,999,6709,.24770706E-3,.4387E-4,0
LEMUR-2-KREMPEL-BRO2,2025-061C,2026-06-13T22:05:24.662976,15.13984483,.00174007,97.5684,140.9278,268.1361,91.7877,0,U,63353,999,6711,.23254309E-3,.4167E-4,0
LEMUR-2-THERMORAPTOR,2025-061D,2026-06-13T21:39:50.057280,15.14062278,.00171509,97.5688,140.9852,267.0478,92.8791,0,U,63354,999,6711,.23862887E-3,.4287E-4,0
LEMUR-2-NEUROSPICY,2025-061E,2026-06-13T20:59:24.438624,15.14177631,.00150203,97.5616,140.5860,271.0399,88.9112,0,U,63355,999,6711,.27171625E-3,.4903E-4,0
LEMUR-2-TILLINFINITY,2025-061F,2026-06-13T21:52:01.435008,15.14763081,.00162275,97.5598,140.9106,257.7055,102.2360,0,U,63356,999,6714,.22129487E-3,.4049E-4,0
LEMUR-2-KREMPEL-BRO1,2025-061G,2026-06-13T21:13:13.171008,15.14568408,.00169448,97.5602,140.8007,259.2251,100.7073,0,U,63357,999,6713,.26460856E-3,.483E-4,0
LEMUR-2-LANGER2SPACE,2025-061H,2026-06-13T21:50:26.085696,15.14265638,.00148428,97.5604,140.6417,269.1377,90.8154,0,U,63358,999,6712,.22427043E-3,.4045E-4,0
LEMUR-2-BALTO,2025-052BH,2026-06-13T15:37:55.414848,15.00051082,.00068837,97.6897,58.3019,67.0578,293.1371,0,U,63395,999,6823,.50508238E-3,.6235E-4,0
LEMUR-2-KRISH,2025-135AK,2026-06-13T14:19:15.636000,14.96175199,.0001655,97.7738,279.4976,104.3226,255.8179,0,U,64561,999,5338,.51863E-3,.5787E-4,0
LEMUR-2-HUBBLE-4,2025-135AP,2026-06-13T18:51:31.385088,14.93188323,.00011512,97.7696,278.7332,330.6333,29.4822,0,U,64565,999,5336,.15451174E-3,.1557E-4,0
LEMUR-2-SEJONG-2,2025-135BL,2026-06-13T21:29:12.727680,14.96675735,.00041206,97.7689,279.9389,354.1338,5.9834,0,U,64586,999,5345,.35923222E-3,.4042E-4,0
LEMUR-2-HUBBLE-5,2025-135BT,2026-06-13T22:37:46.211808,14.94128250,.00053417,97.7715,279.5169,5.7642,354.3639,0,U,64840,999,5342,.16275878E-3,.1684E-4,0
LEMUR-2-KARENDARRELL,2025-135BU,2026-06-13T20:23:31.380000,15.00067927,.00094468,97.7676,281.0632,215.0611,144.9992,0,U,64841,999,5351,.67365836E-3,.8344E-4,0
LEMUR-2-LUCILLE-ROSE,2025-135BV,2026-06-13T21:21:52.554240,15.00118871,.00109065,97.7771,281.1193,295.7572,64.2526,0,U,65403,999,4814,.59345825E-3,.7354E-4,0
LEMUR-2-AFFIE-WAUWIE,2025-248C,2026-06-13T04:42:22.268448,15.27025697,.00078611,45.3883,136.6090,56.5592,303.6048,0,U,66295,999,3398,.55125581E-3,.1463E-3,0
LEMUR-2-DEANANDMAEVE,2025-276N,2026-06-13T03:59:46.445856,15.19685632,.00061073,97.4219,237.7086,28.0215,332.1348,0,U,66678,999,2980,.31871551E-3,.6739E-4,0
LEMUR-2-STAS-GORBUK,2025-276W,2026-06-13T18:32:52.538784,15.19347752,.00054452,97.4254,238.3600,26.8469,333.3046,0,U,66686,999,2989,.2805744E-3,.5865E-4,0
LEMUR-2-TEODOR,2025-276DG,2026-06-13T19:49:38.533152,15.21016754,.0002067,97.4158,238.6447,119.1680,240.9763,0,U,66768,999,2993,.29138365E-3,.6397E-4,0
